NORAD_CAT_ID,OBJECT_NAME,OBJECT_TYPE,EPOCH,MEAN_MOTION,ECCENTRICITY,INCLINATION,RA_OF_ASC_NODE,ARG_OF_PERICENTER,MEAN_ANOMALY,BSTAR,MEAN_MOTION_DOT,MEAN_MOTION_DDOT,TLE_LINE0,TLE_LINE1,TLE_LINE2,SEMIMAJOR_AXIS,PERIOD,APOGEE,PERIGEE,DECAYED
55430.0,STARLINK-5642,PAYLOAD,2023-08-20 12:57:53,14.98327495,0.0003624,69.9995,294.6583,268.6747,91.3997,1.1141e-06,-8e-07,0.0,0 STARLINK-5642,1 55430U 23014AR  23232.54020229 -.00000080  00000-0  11141-5 0  9995,2 55430  69.9995 294.6583 0003624 268.6747  91.3997 14.98327495 30506,6950.201,96.107,574.584,569.547,0.0
55430.0,STARLINK-5642,PAYLOAD,2023-08-21 12:59:54,14.98334364,0.0003687,69.9993,292.134,270.0133,90.0604,-2.8759e-05,-4.36e-06,0.0,0 STARLINK-5642,1 55430U 23014AR  23233.54159807 -.00000436  00000-0 -28759-4 0  9999,2 55430  69.9993 292.1340 0003687 270.0133  90.0604 14.98334364 30653,6950.179,96.107,574.607,569.482,0.0
55430.0,STARLINK-5642,PAYLOAD,2023-08-22 09:49:39,14.98326874,0.0003714,69.9991,289.9458,270.5688,89.5046,1.3625e-05,6.9e-07,0.0,0 STARLINK-5642,1 55430U 23014AR  23234.40948144  .00000069  00000-0  13625-4 0  9991,2 55430  69.9991 289.9458 0003714 270.5688  89.5046 14.98326874 30780,6950.203,96.107,574.649,569.486,0.0
55430.0,STARLINK-5642,PAYLOAD,2023-08-23 11:27:47,14.98331838,0.0003576,69.9994,287.2532,266.5324,93.5426,1.595e-05,9.7e-07,0.0,0 STARLINK-5642,1 55430U 23014AR  23235.47763774  .00000097  00000-0  15950-4 0  9997,2 55430  69.9994 287.2532 0003576 266.5324  93.5426 14.98331838 30946,6950.187,96.107,574.538,569.567,0.0
55430.0,STARLINK-5642,PAYLOAD,2023-08-24 13:05:57,14.98328422,0.0003686,69.9989,284.5594,267.7889,92.2848,-1.165e-05,-2.32e-06,0.0,0 STARLINK-5642,1 55430U 23014AR  23236.54580050 -.00000232  00000-0 -11650-4 0  9996,2 55430  69.9989 284.5594 0003686 267.7889  92.2848 14.98328422 32041,6950.198,96.107,574.625,569.501,0.0
55430.0,STARLINK-5642,PAYLOAD,2023-08-25 09:55:41,14.98332731,0.0003723,69.9987,282.3708,269.0443,91.029,4.106e-05,3.97e-06,0.0,0 STARLINK-5642,1 55430U 23014AR  23237.41367566  .00000397  00000-0  41060-4 0  9996,2 55430  69.9987 282.3708 0003723 269.0443  91.0290 14.98332731 31231,6950.184,96.107,574.637,569.462,0.0
55430.0,STARLINK-5642,PAYLOAD,2023-08-25 13:07:57,14.98335476,0.0003752,69.9986,282.034,269.9306,90.1423,2.4807e-05,2.03e-06,0.0,0 STARLINK-5642,1 55430U 23014AR  23237.54719396  .00000203  00000-0  24807-4 0  9998,2 55430  69.9986 282.0340 0003752 269.9306  90.1423 14.98335476 32191,6950.176,96.107,574.649,569.433,0.0
55430.0,STARLINK-5642,PAYLOAD,2023-08-26 09:57:42,14.98327309,0.0003705,69.9985,279.8455,269.2251,90.8484,2.1094e-05,1.59e-06,0.0,0 STARLINK-5642,1 55430U 23014AR  23238.41507882  .00000159  00000-0  21094-4 0  9995,2 55430  69.9985 279.8455 0003705 269.2251  90.8484 14.98327309 31381,6950.201,96.107,574.641,569.491,0.0
55430.0,STARLINK-5642,PAYLOAD,2023-08-26 11:33:50,14.98327975,0.0003679,69.9986,279.6772,269.9283,90.1454,1.8073e-05,1.23e-06,0.0,0 STARLINK-5642,1 55430U 23014AR  23238.48183862  .00000123  00000-0  18073-4 0  9994,2 55430  69.9986 279.6772 0003679 269.9283  90.1454 14.98327975 32339,6950.199,96.107,574.621,569.507,0.0
55430.0,STARLINK-5642,PAYLOAD,2023-08-27 09:59:43,14.98332081,0.0003657,69.9986,277.3206,269.6782,90.3957,2.6867e-07,-9e-07,0.0,0 STARLINK-5642,1 55430U 23014AR  23239.41647569 -.00000090  00000-0  26867-6 0  9993,2 55430  69.9986 277.3206 0003657 269.6782  90.3957 14.98332081 31538,6950.186,96.107,574.593,569.51,0.0
55430.0,STARLINK-5642,PAYLOAD,2023-08-27 13:11:59,14.98334257,0.00037,69.9984,276.9836,270.5322,89.5413,5.4895e-06,-2.8e-07,0.0,0 STARLINK-5642,1 55430U 23014AR  23239.54999392 -.00000028  00000-0  54895-5 0  9993,2 55430  69.9984 276.9836 0003700 270.5322  89.5413 14.98334257 32490,6950.18,96.107,574.616,569.473,0.0
55430.0,STARLINK-5642,PAYLOAD,2023-08-28 13:14:00,14.98327503,0.0003711,69.9982,274.4585,268.9432,91.1302,-4.3936e-06,-1.46e-06,0.0,0 STARLINK-5642,1 55430U 23014AR  23240.55139825 -.00000146  00000-0 -43936-5 0  9999,2 55430  69.9982 274.4585 0003711 268.9432  91.1302 14.98327503 31702,6950.201,96.107,574.645,569.486,0.0
55430.0,STARLINK-5642,PAYLOAD,2023-08-29 11:39:53,14.98331159,0.0003736,69.9982,272.1017,268.7386,91.3345,-1.8976e-06,-1.16e-06,0.0,0 STARLINK-5642,1 55430U 23014AR  23241.48603574 -.00000116  00000-0 -18976-5 0  9992,2 55430  69.9982 272.1017 0003736 268.7386  91.3345 14.98331159 32780,6950.189,96.107,574.651,569.458,0.0
55430.0,STARLINK-5642,PAYLOAD,2023-08-29 22:52:49,14.98329927,0.0003726,69.9982,270.9234,268.4527,91.6205,-9.5944e-07,-1.05e-06,0.0,0 STARLINK-5642,1 55430U 23014AR  23241.95335619 -.00000105  00000-0 -95944-6 0  9995,2 55430  69.9982 270.9234 0003726 268.4527  91.6205 14.98329927 31912,6950.193,96.107,574.648,569.468,0.0
55430.0,STARLINK-5642,PAYLOAD,2023-08-30 19:42:34,14.98329398,0.0003755,69.9982,268.7352,269.7532,90.3197,1.2228e-05,5.3e-07,0.0,0 STARLINK-5642,1 55430U 23014AR  23242.82123661  .00000053  00000-0  12228-4 0  9996,2 55430  69.9982 268.7352 0003755 269.7532  90.3197 14.98329398 32986,6950.195,96.107,574.67,569.45,0.0
55430.0,STARLINK-5642,PAYLOAD,2023-08-31 11:43:55,14.98331809,0.0003748,69.9981,267.0525,271.3754,88.6976,2.6919e-05,2.28e-06,0.0,0 STARLINK-5642,1 55430U 23014AR  23243.48883395  .00000228  00000-0  26919-4 0  9992,2 55430  69.9981 267.0525 0003748 271.3754  88.6976 14.98331809 32149,6950.187,96.107,574.657,569.447,0.0
55430.0,STARLINK-5642,PAYLOAD,2023-09-01 08:33:40,14.98328924,0.000383,69.9979,264.8635,269.8538,90.2182,-4.1699e-06,-1.43e-06,0.0,0 STARLINK-5642,1 55430U 23014AR  23244.35671561 -.00000143  00000-0 -41699-5 0  9990,2 55430  69.9979 264.8635 0003830 269.8538  90.2182 14.98328924 33218,6950.196,96.107,574.723,569.399,0.0
55430.0,STARLINK-5642,PAYLOAD,2023-09-01 18:10:28,14.98330649,0.0003809,69.9981,263.8534,269.8613,90.211,5.1097e-06,-3.2e-07,0.0,0 STARLINK-5642,1 55430U 23014AR  23244.75727402 -.00000032  00000-0  51097-5 0  9999,2 55430  69.9981 263.8534 0003809 269.8613  90.2110 14.98330649 32338,6950.191,96.107,574.703,569.409,0.0
55430.0,STARLINK-5642,PAYLOAD,2023-09-02 00:35:00,14.98331514,0.0003915,69.9977,263.1795,270.1342,89.9368,-9.6812e-06,-2.09e-06,0.0,0 STARLINK-5642,1 55430U 23014AR  23245.02431315 -.00000209  00000-0 -96812-5 0  9996,2 55430  69.9977 263.1795 0003915 270.1342  89.9368 14.98331514 33318,6950.188,96.107,574.774,569.332,0.0
55430.0,STARLINK-5642,PAYLOAD,2023-09-02 18:12:29,14.98331621,0.0003779,69.9983,261.328,272.0031,88.0695,1.304e-05,6.2e-07,0.0,0 STARLINK-5642,1 55430U 23014AR  23245.75867194  .00000062  00000-0  13040-4 0  9990,2 55430  69.9983 261.3280 0003779 272.0031  88.0695 14.98331621 32487,6950.188,96.107,574.679,569.426,0.0
55430.0,STARLINK-5642,PAYLOAD,2023-09-03 08:37:42,14.9832831,0.0003748,69.9986,259.8136,270.5874,89.4855,-2.9764e-06,-1.29e-06,0.0,0 STARLINK-5642,1 55430U 23014AR  23246.35951445 -.00000129  00000-0 -29764-5 0  9997,2 55430  69.9986 259.8136 0003748 270.5874  89.4855 14.98328310 33515,6950.198,96.107,574.668,569.458,0.0
55430.0,STARLINK-5642,PAYLOAD,2023-09-03 18:14:30,14.98328889,0.0003748,69.9986,258.8039,269.4575,90.6154,-4.5331e-06,-1.47e-06,0.0,0 STARLINK-5642,1 55430U 23014AR  23246.76007416 -.00000147  00000-0 -45331-5 0  9990,2 55430  69.9986 258.8039 0003748 269.4575  90.6154 14.98328889 32630,6950.196,96.107,574.666,569.456,0.0
55430.0,STARLINK-5642,PAYLOAD,2023-09-04 07:03:34,14.98329161,0.000373,69.9986,257.4574,269.0341,91.0391,-2.159e-05,-3.51e-06,0.0,0 STARLINK-5642,1 55430U 23014AR  23247.29415434 -.00000351  00000-0 -21590-4 0  9999,2 55430  69.9986 257.4574 0003730 269.0341  91.0391 14.98329161 33652,6950.195,96.107,574.653,569.468,0.0
55430.0,STARLINK-5642,PAYLOAD,2023-09-04 18:16:31,14.983276,0.0003764,69.9985,256.2785,269.1806,90.8922,2.0237e-05,1.48e-06,0.0,0 STARLINK-5642,1 55430U 23014AR  23247.76147384  .00000148  00000-0  20237-4 0  9996,2 55430  69.9985 256.2785 0003764 269.1806  90.8922 14.98327600 32782,6950.2,96.107,574.681,569.449,0.0
55430.0,STARLINK-5642,PAYLOAD,2023-09-05 18:18:32,14.98329175,0.0003555,69.9991,253.753,268.6853,91.3899,3.2828e-05,2.99e-06,0.0,0 STARLINK-5642,1 55430U 23014AR  23248.76287358  .00000299  00000-0  32828-4 0  9999,2 55430  69.9991 253.7530 0003555 268.6853  91.3899 14.98329175 32938,6950.195,96.107,574.531,569.59,0.0
55430.0,STARLINK-5642,PAYLOAD,2023-09-06 00:43:04,14.98329428,0.0003784,69.9984,253.0799,268.5122,91.5604,1.6314e-05,1.02e-06,0.0,0 STARLINK-5642,1 55430U 23014AR  23249.02991292  .00000102  00000-0  16314-4 0  9993,2 55430  69.9984 253.0799 0003784 268.5122  91.5604 14.98329428 33918,6950.195,96.107,574.69,569.43,0.0
55430.0,STARLINK-5642,PAYLOAD,2023-09-07 10:21:53,14.98330665,0.0003735,69.9988,249.5451,269.2271,90.8461,1.4098e-05,7.5e-07,0.0,0 STARLINK-5642,1 55430U 23014AR  23250.43187158  .00000075  00000-0  14098-4 0  9994,2 55430  69.9988 249.5451 0003735 269.2271  90.8461 14.98330665 33183,6950.191,96.107,574.652,569.46,0.0
55430.0,STARLINK-5642,PAYLOAD,2023-09-08 08:47:46,14.98329718,0.0003469,69.9994,247.1888,265.2452,94.8311,-1.5587e-05,-2.79e-06,0.0,0 STARLINK-5642,1 55430U 23014AR  23251.36651231 -.00000279  00000-0 -15587-4 0  9997,2 55430  69.9994 247.1888 0003469 265.2452  94.8311 14.98329718 34264,6950.194,96.107,574.47,569.648,0.0
55430.0,STARLINK-5642,PAYLOAD,2023-09-08 16:48:26,14.98330839,0.0003627,69.9989,246.3473,267.4614,92.613,-2.4561e-05,-3.86e-06,0.0,0 STARLINK-5642,1 55430U 23014AR  23251.70031144 -.00000386  00000-0 -24561-4 0  9991,2 55430  69.9989 246.3473 0003627 267.4614  92.6130 14.98330839 33371,6950.19,96.107,574.576,569.534,0.0
55430.0,STARLINK-5642,PAYLOAD,2023-09-09 10:25:55,14.98328921,0.0003608,69.9991,244.4958,266.3939,93.6807,-9.7775e-06,-2.1e-06,0.0,0 STARLINK-5642,1 55430U 23014AR  23252.43467226 -.00000210  00000-0 -97775-5 0  9990,2 55430  69.9991 244.4958 0003608 266.3939  93.6807 14.98328921 34426,6950.196,96.107,574.569,569.554,0.0
